{"type": "FeatureCollection", "features": [ {"type": "Feature", "properties": {"norad_id": 41774, "name": "SKYSAT-C3", "group": "resource", "lat": 6.126774056240867, "lon": 21.689740921719192, "alt_km": 435.3617378027775, "timestamp": "2025-12-14T18:52:55.155641+00:00", "meta": {"OBJECT_NAME": "SKYSAT-C3", "OBJECT_ID": "2016-058E", "EPOCH": "2025-12-14T00:11:45.043008", "MEAN_MOTION": 15.44453958, "ECCENTRICITY": 0.00017051, "INCLINATION": 96.9308, "RA_OF_ASC_NODE": 21.6953, "ARG_OF_PERICENTER": 107.5022, "MEAN_ANOMALY": 252.6414, "EPHEMERIS_TYPE": 0, "CLASSIFICATION_TYPE": "U", "NORAD_CAT_ID": 41774, "ELEMENT_SET_NO": 999, "REV_AT_EPOCH": 51745, "BSTAR": 0.00044156247, "MEAN_MOTION_DOT": 0.00020381, "MEAN_MOTION_DDOT": 0}, "tle": {"line1": "1 41774U 16058E   25348.00816022  .00020381  00000+0  44156-3 0  9990", "line2": "2 41774  96.9308  21.6953 0001705 107.5022 252.6414 15.44453958517450"}}, "geometry": {"type": "Point", "coordinates": [21.689740921719192, 6.126774056240867]}}, {"type": "Feature", "properties": {"norad_id": 41785, "name": "ALSAT 1B", "group": "resource", "lat": 51.62144864453865, "lon": -9.454759802009553, "alt_km": 644.2992832300915, "timestamp": "2025-12-14T18:52:55.155651+00:00", "meta": {"OBJECT_NAME": "ALSAT 1B", "OBJECT_ID": "2016-059C", "EPOCH": "2025-12-14T00:42:02.492928", "MEAN_MOTION": 14.72078751, "ECCENTRICITY": 0.00107393, "INCLINATION": 97.782, "RA_OF_ASC_NODE": 359.7636, "ARG_OF_PERICENTER": 99.6049, "MEAN_ANOMALY": 260.6373, "EPHEMERIS_TYPE": 0, "CLASSIFICATION_TYPE": "U", "NORAD_CAT_ID": 41785, "ELEMENT_SET_NO": 999, "REV_AT_EPOCH": 49333, "BSTAR": 0.00016927482, "MEAN_MOTION_DOT": 1.018e-05, "MEAN_MOTION_DDOT": 0}, "tle": {"line1": "1 41785U 16059C   25348.02919552  .00001018  00000+0  16927-3 0  9998", "line2": "2 41785  97.7820 359.7636 0010739  99.6049 260.6373 14.72078751493337"}}, "geometry": {"type": "Point", "coordinates": [-9.454759802009553, 51.62144864453865]}}, {"type": "Feature", "properties": {"norad_id": 41787, "name": "PATHFINDER 1", "group": "resource", "lat": 80.03554746351155, "lon": -137.12512730756848, "alt_km": 642.5082591254704, "timestamp": "2025-12-14T18:52:55.155662+00:00", "meta": {"OBJECT_NAME": "PATHFINDER 1", "OBJECT_ID": "2016-059E", "EPOCH": "2025-12-13T22:48:28.622592", "MEAN_MOTION": 14.67323702, "ECCENTRICITY": 0.00300153, "INCLINATION": 97.8139, "RA_OF_ASC_NODE": 350.6677, "ARG_OF_PERICENTER": 77.5558, "MEAN_ANOMALY": 282.9004, "EPHEMERIS_TYPE": 0, "CLASSIFICATION_TYPE": "U", "NORAD_CAT_ID": 41787, "ELEMENT_SET_NO": 999, "REV_AT_EPOCH": 49254, "BSTAR": 0.00020794649, "MEAN_MOTION_DOT": 1.135e-05, "MEAN_MOTION_DDOT": 0}, "tle": {"line1": "1 41787U 16059E   25347.95033128  .00001135  00000+0  20795-3 0  9995", "line2": "2 41787  97.8139 350.6677 0030015  77.5558 282.9004 14.67323702492540"}}, "geometry": {"type": "Point", "coordinates": [-137.12512730756848, 80.03554746351155]}}, {"type": "Feature", "properties": {"norad_id": 41790, "name": "SCATSAT 1", "group": "resource", "lat": 5.110338036382375, "lon": -133.78334536510786, "alt_km": 611.1991179436391, "timestamp": "2025-12-14T18:52:55.155673+00:00", "meta": {"OBJECT_NAME": "SCATSAT 1", "OBJECT_ID": "2016-059H", "EPOCH": "2025-12-13T22:36:50.758560", "MEAN_MOTION": 14.78942845, "ECCENTRICITY": 0.00563182, "INCLINATION": 98.1466, "RA_OF_ASC_NODE": 44.6276, "ARG_OF_PERICENTER": 124.189, "MEAN_ANOMALY": 236.4677, "EPHEMERIS_TYPE": 0, "CLASSIFICATION_TYPE": "U", "NORAD_CAT_ID": 41790, "ELEMENT_SET_NO": 999, "REV_AT_EPOCH": 7420, "BSTAR": 0.00029681332, "MEAN_MOTION_DOT": 2.192e-05, "MEAN_MOTION_DDOT": 0}, "tle": {"line1": "1 41790U 16059H   25347.94225415  .00002192  00000+0  29681-3 0  9997", "line2": "2 41790  98.1466  44.6276 0056318 124.1890 236.4677 14.78942845 74204"}}, "geometry": {"type": "Point", "coordinates": [-133.78334536510786, 5.110338036382375]}}, {"type": "Feature", "properties": {"norad_id": 41875, "name": "GOKTURK 1A", "group": "resource", "lat": 39.539363007644, "lon": 67.91187755095471, "alt_km": 680.7778397125912, "timestamp": "2025-12-14T18:52:55.155683+00:00", "meta": {"OBJECT_NAME": "GOKTURK 1A", "OBJECT_ID": "2016-073A", "EPOCH": "2025-12-14T00:11:10.250592", "MEAN_MOTION": 14.62782704, "ECCENTRICITY": 0.00012385, "INCLINATION": 98.1424, "RA_OF_ASC_NODE": 240.3561, "ARG_OF_PERICENTER": 78.6035, "MEAN_ANOMALY": 281.5306, "EPHEMERIS_TYPE": 0, "CLASSIFICATION_TYPE": "U", "NORAD_CAT_ID": 41875, "ELEMENT_SET_NO": 999, "REV_AT_EPOCH": 48175, "BSTAR": 0.00018824268, "MEAN_MOTION_DOT": 9.13e-06, "MEAN_MOTION_DDOT": 0}, "tle": {"line1": "1 41875U 16073A   25348.00775753  .00000913  00000+0  18824-3 0  9996", "line2": "2 41875  98.1424 240.3561 0001238  78.6035 281.5306 14.62782704481750"}}, "geometry": {"type": "Point", "coordinates": [67.91187755095471, 39.539363007644]}}, {"type": "Feature", "properties": {"norad_id": 41877, "name": "RESOURCESAT-2A", "group": "resource", "lat": -64.40595417731215, "lon": -140.18249390750066, "alt_km": 826.2752917181924, "timestamp": "2025-12-14T18:52:55.155694+00:00", "meta": {"OBJECT_NAME": "RESOURCESAT-2A", "OBJECT_ID": "2016-074A", "EPOCH": "2025-12-14T00:50:13.939584", "MEAN_MOTION": 14.21600979, "ECCENTRICITY": 0.00011756, "INCLINATION": 98.7752, "RA_OF_ASC_NODE": 57.8829, "ARG_OF_PERICENTER": 248.6571, "MEAN_ANOMALY": 111.448, "EPHEMERIS_TYPE": 0, "CLASSIFICATION_TYPE": "U", "NORAD_CAT_ID": 41877, "ELEMENT_SET_NO": 999, "REV_AT_EPOCH": 46799, "BSTAR": 0.00022465258, "MEAN_MOTION_DOT": 4.48e-06, "MEAN_MOTION_DDOT": 0}, "tle": {"line1": "1 41877U 16074A   25348.03488356  .00000448  00000+0  22465-3 0  9991", "line2": "2 41877  98.7752  57.8829 0001175 248.6571 111.4480 14.21600979467996"}}, "geometry": {"type": "Point", "coordinates": [-140.18249390750066, -64.40595417731215]}}, {"type": "Feature", "properties": {"norad_id": 41948, "name": "CARTOSAT-2D", "group": "resource", "lat": -69.44344200041614, "lon": -154.13954929429175, "alt_km": 515.6407484307392, "timestamp": "2025-12-14T18:52:55.155704+00:00", "meta": {"OBJECT_NAME": "CARTOSAT-2D", "OBJECT_ID": "2017-008A", "EPOCH": "2025-12-14T00:23:39.086304", "MEAN_MOTION": 15.19277954, "ECCENTRICITY": 0.00047903, "INCLINATION": 97.4395, "RA_OF_ASC_NODE": 45.4938, "ARG_OF_PERICENTER": 157.3013, "MEAN_ANOMALY": 202.8434, "EPHEMERIS_TYPE": 0, "CLASSIFICATION_TYPE": "U", "NORAD_CAT_ID": 41948, "ELEMENT_SET_NO": 999, "REV_AT_EPOCH": 48946, "BSTAR": 0.00028402035, "MEAN_MOTION_DOT": 5.925e-05, "MEAN_MOTION_DDOT": 0}, "tle": {"line1": "1 41948U 17008A   25348.01642461  .00005925  00000+0  28402-3 0  9997", "line2": "2 41948  97.4395  45.4938 0004790 157.3013 202.8434 15.19277954489462"}}, "geometry": {"type": "Point", "coordinates": [-154.13954929429175, -69.44344200041614]}}, {"type": "Feature", "properties": {"norad_id": 42063, "name": "SENTINEL-2B", "group": "resource", "lat": -75.16671014370033, "lon": 95.91730192682766, "alt_km": 797.1242546820067, "timestamp": "2025-12-14T18:52:55.155714+00:00", "meta": {"OBJECT_NAME": "SENTINEL-2B", "OBJECT_ID": "2017-013A", "EPOCH": "2025-12-13T23:06:19.960992", "MEAN_MOTION": 14.30817173, "ECCENTRICITY": 0.00011717, "INCLINATION": 98.5711, "RA_OF_ASC_NODE": 60.3911, "ARG_OF_PERICENTER": 93.3771, "MEAN_ANOMALY": 266.7546, "EPHEMERIS_TYPE": 0, "CLASSIFICATION_TYPE": "U", "NORAD_CAT_ID": 42063, "ELEMENT_SET_NO": 999, "REV_AT_EPOCH": 45815, "BSTAR": 0.00015504776, "MEAN_MOTION_DOT": 3.63e-06, "MEAN_MOTION_DDOT": 0}, "tle": {"line1": "1 42063U 17013A   25347.96273103  .00000363  00000+0  15505-3 0  9999", "line2": "2 42063  98.5711  60.3911 0001171  93.3771 266.7546 14.30817173458152"}}, "geometry": {"type": "Point", "coordinates": [95.91730192682766, -75.16671014370033]}}, {"type": "Feature", "properties": {"norad_id": 42767, "name": "CARTOSAT-2E", "group": "resource", "lat": 18.677479351765996, "lon": -131.1160913673529, "alt_km": 508.0541712645945, "timestamp": "2025-12-14T18:52:55.155725+00:00", "meta": {"OBJECT_NAME": "CARTOSAT-2E", "OBJECT_ID": "2017-036C", "EPOCH": "2025-12-13T23:12:21.754944", "MEAN_MOTION": 15.19216829, "ECCENTRICITY": 0.00020323, "INCLINATION": 97.4561, "RA_OF_ASC_NODE": 45.5373, "ARG_OF_PERICENTER": 233.7363, "MEAN_ANOMALY": 126.3684, "EPHEMERIS_TYPE": 0, "CLASSIFICATION_TYPE": "U", "NORAD_CAT_ID": 42767, "ELEMENT_SET_NO": 999, "REV_AT_EPOCH": 47002, "BSTAR": 0.00032935872, "MEAN_MOTION_DOT": 6.869e-05, "MEAN_MOTION_DDOT": 0}, "tle": {"line1": "1 42767U 17036C   25347.96691846  .00006869  00000+0  32936-3 0  9997", "line2": "2 42767  97.4561  45.5373 0002032 233.7363 126.3684 15.19216829470028"}}, "geometry": {"type": "Point", "coordinates": [-131.1160913673529, 18.677479351765996]}}, {"type": "Feature", "properties": {"norad_id": 42920, "name": "FORMOSAT-5", "group": "resource", "lat": 70.99739524002601, "lon": 38.163464914679594, "alt_km": 721.1546079436566, "timestamp": "2025-12-14T18:52:55.155736+00:00", "meta": {"OBJECT_NAME": "FORMOSAT-5", "OBJECT_ID": "2017-049A", "EPOCH": "2025-12-13T22:41:14.905824", "MEAN_MOTION": 14.51006362, "ECCENTRICITY": 0.00098532, "INCLINATION": 98.2453, "RA_OF_ASC_NODE": 62.2404, "ARG_OF_PERICENTER": 291.3675, "MEAN_ANOMALY": 68.6468, "EPHEMERIS_TYPE": 0, "CLASSIFICATION_TYPE": "U", "NORAD_CAT_ID": 42920, "ELEMENT_SET_NO": 999, "REV_AT_EPOCH": 43981, "BSTAR": 9.7827222e-05, "MEAN_MOTION_DOT": 3.43e-06, "MEAN_MOTION_DDOT": 0}, "tle": {"line1": "1 42920U 17049A   25347.94531141  .00000343  00000+0  97827-4 0  9993", "line2": "2 42920  98.2453  62.2404 0009853 291.3675  68.6468 14.51006362439817"}}, "geometry": {"type": "Point", "coordinates": [38.163464914679594, 70.99739524002601]}}]}